{"type":"FeatureCollection","features":[{"type":"Feature","properties":{"STATEFP":"21","COUNTYFP":"037","COUNTYNS":"00516865","GEOIDFQ":"0500000US21037","GEOID":"21037","NAME":"Campbell","NAMELSAD":"Campbell County","STUSPS":"KY","STATE_NAME":"Kentucky","LSAD":"06","ALAND":391916805,"AWATER":20943965},"geometry":{"type":"Polygon","coordinates":[[[-84.502062,39.096641],[-84.5019963180453,39.0966840699391],[-84.496543,39.10026],[-84.4958322681388,39.1008184321767],[-84.493743,39.10246],[-84.4935544922307,39.1027207690808],[-84.487743,39.11076],[-84.4848121102702,39.1133460791733],[-84.480943,39.11676],[-84.476243,39.11916],[-84.4761428376073,39.1192004093147],[-84.470542,39.12146],[-84.462042,39.12176],[-84.455342,39.12036],[-84.449793,39.117754],[-84.445242,39.114461],[-84.4407499022624,39.1097735936651],[-84.440642,39.109661],[-84.4358592728829,39.1027227171797],[-84.435541,39.102261],[-84.432841,39.094261],[-84.433941,39.092461],[-84.4346325076923,39.0869289384615],[-84.434641,39.086861],[-84.432941,39.083961],[-84.432641,39.078261],[-84.4326734620709,39.0779169020487],[-84.433141,39.072961],[-84.4331317919463,39.0728988456376],[-84.432341,39.067561],[-84.429841,39.058262],[-84.4294503306395,39.05759332319],[-84.427913,39.054962],[-84.42573,39.053059],[-84.4214792123506,39.0509440760956],[-84.421467,39.050938],[-84.406941,39.045662],[-84.40254,39.045662],[-84.40094,39.046362],[-84.39414,39.045262],[-84.38684,39.045162],[-84.360439,39.041362],[-84.346039,39.036963],[-84.3363774064021,39.0328792336339],[-84.336339,39.032863],[-84.326539,39.027463],[-84.3199364709232,39.0220809555344],[-84.31368,39.016981],[-84.304698,39.006455],[-84.299362,38.995985],[-84.297255,38.989694],[-84.296466,38.985306],[-84.2962075831128,38.982143460671],[-84.2953278659995,38.9713773687179],[-84.295076,38.968295],[-84.288164,38.955789],[-84.279916,38.945168],[-84.27491,38.941511],[-84.2619108127599,38.927770344204],[-84.260797,38.926593],[-84.25701,38.923208],[-84.245647,38.907035],[-84.242689,38.903187],[-84.240155,38.900912],[-84.234453,38.893226],[-84.232343,38.884325],[-84.232132,38.880483],[-84.2319129457719,38.8748299158016],[-84.324671,38.837553],[-84.387389,38.812323],[-84.4081,38.805861],[-84.418176,38.80662],[-84.430312,38.828551],[-84.451507,38.820344],[-84.4634,38.852059],[-84.439506,38.897635],[-84.441619,38.907709],[-84.44864,38.920775],[-84.451899,38.928981],[-84.463465,38.94791],[-84.449412,38.949869],[-84.428487,38.975104],[-84.440368,38.984421],[-84.462446,38.966713],[-84.4508,38.993609],[-84.46976,39.004266],[-84.475452,39.006177],[-84.489302,39.022856],[-84.489447,39.032585],[-84.48522,39.041016],[-84.494814,39.05158],[-84.49435,39.066862],[-84.496436,39.07538],[-84.497772,39.076931],[-84.499678,39.07962],[-84.501539,39.081838],[-84.5060822325253,39.0950807457156],[-84.502062,39.096641]]]}},{"type":"Feature","properties":{"STATEFP":"21","COUNTYFP":"015","COUNTYNS":"00516854","GEOIDFQ":"0500000US21015","GEOID":"21015","NAME":"Boone","NAMELSAD":"Boone County","STUSPS":"KY","STATE_NAME":"Kentucky","LSAD":"06","ALAND":637844400,"AWATER":26499419},"geometry":{"type":"Polygon","coordinates":[[[-84.897364,39.057378],[-84.893873,39.062466],[-84.888873,39.066376],[-84.8694829321438,39.0744694132224],[-84.860689,39.07814],[-84.8522726329318,39.085805973927],[-84.849574,39.088264],[-84.8463456908206,39.0905195479584],[-84.839515,39.095292],[-84.831197,39.10192],[-84.826246,39.10417],[-84.8255302619195,39.1043239853647],[-84.820157,39.10548],[-84.813767,39.106492],[-84.812241,39.107102],[-84.810753,39.109142],[-84.79382,39.112939],[-84.78768,39.115297],[-84.783991,39.11806],[-84.766749,39.138558],[-84.7589353526971,39.1437035726141],[-84.754449,39.146658],[-84.750749,39.147358],[-84.744149,39.147458],[-84.732048,39.144458],[-84.726148,39.141958],[-84.723298748118,39.1401213572408],[-84.718548,39.137059],[-84.714048,39.132659],[-84.7122344808816,39.1306058463828],[-84.701947,39.118959],[-84.6970001232396,39.1129578708153],[-84.689747,39.104159],[-84.684847,39.100459],[-84.677247,39.09826],[-84.666147,39.09796],[-84.657246,39.09546],[-84.650346,39.09166],[-84.635771693775,39.07952831493],[-84.632446,39.07676],[-84.6234848991522,39.0743602500324],[-84.622921,39.069642],[-84.617071,39.021783],[-84.617039,39.02152],[-84.615155,39.006084],[-84.614115,38.997571],[-84.612427,38.983766],[-84.611775,38.978301],[-84.609169,38.957167],[-84.606361,38.934282],[-84.599428,38.887743],[-84.597932,38.879431],[-84.608125,38.835101],[-84.615664,38.802277],[-84.643581,38.797995],[-84.660107,38.777293],[-84.750122,38.830647],[-84.778623,38.85936],[-84.7946164342505,38.8571191971069],[-84.793714,38.857788],[-84.791002,38.860572],[-84.788302,38.864325],[-84.785799,38.869496],[-84.784579,38.87532],[-84.785234,38.880439],[-84.786406,38.88222],[-84.788143,38.883728],[-84.800247,38.89107],[-84.8010842885177,38.8913421070453],[-84.812746,38.895132],[-84.819073,38.895469],[-84.830472,38.897256],[-84.860759,38.897654],[-84.867778,38.899133],[-84.870124,38.900389],[-84.8705710710421,38.9009475636321],[-84.877029,38.909016],[-84.878817,38.913405],[-84.879268,38.916116],[-84.877762,38.920357],[-84.870759,38.929231],[-84.864731,38.934893],[-84.83516,38.957961],[-84.832617,38.96146],[-84.829857,38.969385],[-84.8305258740629,38.9742242424001],[-84.830619,38.974898],[-84.833473,38.981522],[-84.83712,38.988059],[-84.83983,38.99129],[-84.847094,38.997309],[-84.849445,39.000923],[-84.850354,39.00325],[-84.856959,39.011528],[-84.870168,39.025551],[-84.8780504790799,39.0308192394859],[-84.882856,39.034031],[-84.889065,39.04082],[-84.8899793546873,39.0423542086317],[-84.894281,39.049572],[-84.897171,39.052407],[-84.897364,39.057378]]]}},{"type":"Feature","properties":{"STATEFP":"39","COUNTYFP":"165","COUNTYNS":"01074094","GEOIDFQ":"0500000US39165","GEOID":"39165","NAME":"Warren","NAMELSAD":"Warren County","STUSPS":"OH","STATE_NAME":"Ohio","LSAD":"06","ALAND":1039659283,"AWATER":15711767},"geometry":{"type":"Polygon","coordinates":[[[-84.365232,39.589493],[-84.345608,39.589476],[-84.334999,39.589496],[-84.326791,39.589512],[-84.286319,39.589576],[-84.248433,39.587082],[-84.242819,39.586748],[-84.230047,39.585875],[-84.210934,39.584611],[-84.162995,39.581438],[-84.133862,39.579478],[-84.114174,39.57823],[-84.056885,39.574657],[-84.032086,39.573057],[-83.976987,39.569402],[-83.979269,39.544207],[-83.990736,39.421598],[-83.996451,39.36142],[-83.997452,39.351367],[-84.007454,39.255112],[-84.073692,39.259157],[-84.155876,39.264273],[-84.159672,39.264512],[-84.237511,39.269448],[-84.259431,39.27086],[-84.25634,39.275315],[-84.262172,39.288342],[-84.282417,39.289985],[-84.297678,39.291786],[-84.317453,39.292713],[-84.334105,39.293287],[-84.353209,39.292287],[-84.351972,39.306901],[-84.349861,39.330217],[-84.347916,39.351819],[-84.34652,39.366487],[-84.343054,39.397814],[-84.341405,39.412423],[-84.33984,39.427458],[-84.338454,39.440168],[-84.336719,39.455994],[-84.338691,39.473352],[-84.337359,39.488584],[-84.337343,39.488754],[-84.336692,39.496601],[-84.334152,39.524861],[-84.331826,39.548517],[-84.331682,39.549213],[-84.347202,39.545412],[-84.364305,39.54381],[-84.365232,39.589493]]]}},{"type":"Feature","properties":{"STATEFP":"39","COUNTYFP":"017","COUNTYNS":"01074021","GEOIDFQ":"0500000US39017","GEOID":"39017","NAME":"Butler","NAMELSAD":"Butler County","STUSPS":"OH","STATE_NAME":"Ohio","LSAD":"06","ALAND":1208310917,"AWATER":9155717},"geometry":{"type":"Polygon","coordinates":[[[-84.819352,39.309454],[-84.817453,39.391753],[-84.817452144203,39.3917961167554],[-84.815754,39.477352],[-84.815555,39.510952],[-84.815555,39.511052],[-84.815355,39.521951],[-84.815155,39.548051],[-84.814955,39.566251],[-84.814955,39.567251],[-84.8150361906572,39.5676953269799],[-84.763092,39.566604],[-84.703037,39.567467],[-84.591531,39.567532],[-84.478927,39.56879],[-84.479213,39.591024],[-84.474246,39.590155],[-84.435445,39.590056],[-84.365232,39.589493],[-84.364305,39.54381],[-84.347202,39.545412],[-84.331682,39.549213],[-84.331826,39.548517],[-84.334152,39.524861],[-84.336692,39.496601],[-84.337343,39.488754],[-84.337359,39.488584],[-84.338691,39.473352],[-84.336719,39.455994],[-84.338454,39.440168],[-84.33984,39.427458],[-84.341405,39.412423],[-84.343054,39.397814],[-84.34652,39.366487],[-84.347916,39.351819],[-84.349861,39.330217],[-84.351972,39.306901],[-84.353209,39.292287],[-84.370755,39.294398],[-84.378935,39.295676],[-84.391083,39.297579],[-84.428123,39.298649],[-84.439499,39.299963],[-84.44696,39.300808],[-84.465455,39.302922],[-84.484573,39.301606],[-84.485147,39.301546],[-84.50273,39.305502],[-84.512774,39.304835],[-84.523685,39.303278],[-84.542391,39.306256],[-84.562347,39.308079],[-84.571327,39.308048],[-84.579655,39.308058],[-84.598746,39.308556],[-84.63079,39.311978],[-84.630992,39.311942],[-84.641814,39.305044],[-84.70328,39.304748],[-84.763276,39.304918],[-84.819451,39.305152],[-84.819352,39.309454]]]}},{"type":"Feature","properties":{"STATEFP":"39","COUNTYFP":"061","COUNTYNS":"01074043","GEOIDFQ":"0500000US39061","GEOID":"39061","NAME":"Hamilton","NAMELSAD":"Hamilton County","STUSPS":"OH","STATE_NAME":"Ohio","LSAD":"06","ALAND":1050120459,"AWATER":18612564},"geometry":{"type":"Polygon","coordinates":[[[-84.820159,39.227225],[-84.819813,39.244334],[-84.819801,39.247806],[-84.819814281952,39.2485415453446],[-84.819859,39.251018],[-84.8198516328883,39.2513712627838],[-84.819633,39.261855],[-84.819622,39.27159],[-84.8196195784654,39.2720652721804],[-84.8195968604398,39.276524116475],[-84.819451,39.305152],[-84.763276,39.304918],[-84.70328,39.304748],[-84.641814,39.305044],[-84.630992,39.311942],[-84.63079,39.311978],[-84.598746,39.308556],[-84.579655,39.308058],[-84.571327,39.308048],[-84.562347,39.308079],[-84.542391,39.306256],[-84.523685,39.303278],[-84.512774,39.304835],[-84.50273,39.305502],[-84.485147,39.301546],[-84.484573,39.301606],[-84.465455,39.302922],[-84.44696,39.300808],[-84.439499,39.299963],[-84.428123,39.298649],[-84.391083,39.297579],[-84.378935,39.295676],[-84.370755,39.294398],[-84.353209,39.292287],[-84.334105,39.293287],[-84.317453,39.292713],[-84.297678,39.291786],[-84.282417,39.289985],[-84.262172,39.288342],[-84.25634,39.275315],[-84.259431,39.27086],[-84.260416,39.268663],[-84.261408,39.264686],[-84.295114,39.246686],[-84.297003,39.238254],[-84.300015,39.234728],[-84.3187,39.225009],[-84.310319,39.209085],[-84.296099,39.209712],[-84.283128,39.212591],[-84.276377,39.203873],[-84.288932,39.181501],[-84.299328,39.174447],[-84.301828,39.152566],[-84.301893,39.152148],[-84.307136,39.112838],[-84.311018,39.086631],[-84.31102,39.086612],[-84.313208,39.071821],[-84.31481,39.060999],[-84.31524,39.057335],[-84.3199364709232,39.0220809555344],[-84.326539,39.027463],[-84.336339,39.032863],[-84.3363774064021,39.0328792336339],[-84.346039,39.036963],[-84.360439,39.041362],[-84.38684,39.045162],[-84.39414,39.045262],[-84.40094,39.046362],[-84.40254,39.045662],[-84.406941,39.045662],[-84.421467,39.050938],[-84.4214792123506,39.0509440760956],[-84.42573,39.053059],[-84.427913,39.054962],[-84.4294503306395,39.05759332319],[-84.429841,39.058262],[-84.432341,39.067561],[-84.4331317919463,39.0728988456376],[-84.433141,39.072961],[-84.4326734620709,39.0779169020487],[-84.432641,39.078261],[-84.432941,39.083961],[-84.434641,39.086861],[-84.4346325076923,39.0869289384615],[-84.433941,39.092461],[-84.432841,39.094261],[-84.435541,39.102261],[-84.4358592728829,39.1027227171797],[-84.440642,39.109661],[-84.4407499022624,39.1097735936651],[-84.445242,39.114461],[-84.449793,39.117754],[-84.455342,39.12036],[-84.462042,39.12176],[-84.470542,39.12146],[-84.4761428376073,39.1192004093147],[-84.476243,39.11916],[-84.480943,39.11676],[-84.4848121102702,39.1133460791733],[-84.487743,39.11076],[-84.4935544922307,39.1027207690808],[-84.493743,39.10246],[-84.4958322681388,39.1008184321767],[-84.496543,39.10026],[-84.5019963180453,39.0966840699391],[-84.502062,39.096641],[-84.5060822325253,39.0950807457156],[-84.509743,39.09366],[-84.519543,39.09206],[-84.5225736778395,39.092119413406],[-84.5225763500247,39.0921194657915],[-84.524644,39.09216],[-84.541344,39.09916],[-84.5415454696343,39.0992057885532],[-84.543544,39.09966],[-84.550844,39.09936],[-84.5534910788643,39.0981099905363],[-84.554444,39.09766],[-84.557544,39.09486],[-84.563944,39.08736],[-84.5678053286479,39.084864263191],[-84.572144,39.08206],[-84.5861343301458,39.0793177185482],[-84.592408,39.078088],[-84.601682,39.074115],[-84.6043813489005,39.0737359847925],[-84.607928,39.073238],[-84.620112,39.073457],[-84.6234848991522,39.0743602500324],[-84.632446,39.07676],[-84.635771693775,39.07952831493],[-84.650346,39.09166],[-84.657246,39.09546],[-84.666147,39.09796],[-84.677247,39.09826],[-84.684847,39.100459],[-84.689747,39.104159],[-84.6970001232396,39.1129578708153],[-84.701947,39.118959],[-84.7122344808816,39.1306058463828],[-84.714048,39.132659],[-84.718548,39.137059],[-84.723298748118,39.1401213572408],[-84.726148,39.141958],[-84.732048,39.144458],[-84.744149,39.147458],[-84.750749,39.147358],[-84.754449,39.146658],[-84.7589353526971,39.1437035726141],[-84.766749,39.138558],[-84.783991,39.11806],[-84.78768,39.115297],[-84.79382,39.112939],[-84.810753,39.109142],[-84.812241,39.107102],[-84.813767,39.106492],[-84.820157,39.10548],[-84.820131253007,39.112006713023],[-84.8200998069963,39.1199780939153],[-84.8199976017189,39.1458865375361],[-84.819985,39.149081],[-84.819802,39.157613],[-84.8198217558348,39.1614652217745],[-84.8201153322843,39.2187101624055],[-84.820159,39.227225]]]}},{"type":"Feature","properties":{"STATEFP":"21","COUNTYFP":"117","COUNTYNS":"00516905","GEOIDFQ":"0500000US21117","GEOID":"21117","NAME":"Kenton","NAMELSAD":"Kenton County","STUSPS":"KY","STATE_NAME":"Kentucky","LSAD":"06","ALAND":415369038,"AWATER":10186921},"geometry":{"type":"Polygon","coordinates":[[[-84.6234848991522,39.0743602500324],[-84.620112,39.073457],[-84.607928,39.073238],[-84.6043813489005,39.0737359847925],[-84.601682,39.074115],[-84.592408,39.078088],[-84.5861343301458,39.0793177185482],[-84.572144,39.08206],[-84.5678053286479,39.084864263191],[-84.563944,39.08736],[-84.557544,39.09486],[-84.554444,39.09766],[-84.5534910788643,39.0981099905363],[-84.550844,39.09936],[-84.543544,39.09966],[-84.5415454696343,39.0992057885532],[-84.541344,39.09916],[-84.524644,39.09216],[-84.5225763500247,39.0921194657915],[-84.5225736778395,39.092119413406],[-84.519543,39.09206],[-84.509743,39.09366],[-84.5060822325253,39.0950807457156],[-84.501539,39.081838],[-84.499678,39.07962],[-84.497772,39.076931],[-84.496436,39.07538],[-84.49435,39.066862],[-84.494814,39.05158],[-84.48522,39.041016],[-84.489447,39.032585],[-84.489302,39.022856],[-84.475452,39.006177],[-84.46976,39.004266],[-84.4508,38.993609],[-84.462446,38.966713],[-84.440368,38.984421],[-84.428487,38.975104],[-84.449412,38.949869],[-84.463465,38.94791],[-84.451899,38.928981],[-84.44864,38.920775],[-84.441619,38.907709],[-84.439506,38.897635],[-84.4634,38.852059],[-84.451507,38.820344],[-84.430312,38.828551],[-84.418176,38.80662],[-84.423905,38.805227],[-84.484055,38.797865],[-84.532288,38.791937],[-84.547264,38.790093],[-84.604183,38.792644],[-84.615664,38.802277],[-84.608125,38.835101],[-84.597932,38.879431],[-84.599428,38.887743],[-84.606361,38.934282],[-84.609169,38.957167],[-84.611775,38.978301],[-84.612427,38.983766],[-84.614115,38.997571],[-84.615155,39.006084],[-84.617039,39.02152],[-84.617071,39.021783],[-84.622921,39.069642],[-84.6234848991522,39.0743602500324]]]}}]}